CUBEBUG-2 (LO-74)       
1 39440U 13066AA  26197.40077608  .00002037  00000+0  19133-3 0  9994
2 39440  97.8916 146.5092 0055572 291.2614  68.2676 14.93971621681359
FUNCUBE-1 (AO-73)       
1 39444U 13066AE  26197.48559538  .00003947  00000+0  24422-3 0  9991
2 39444  97.8291 169.5530 0037985 103.5264 257.0201 15.09827473684083
UWE-3                   
1 39446U 13066AG  26197.42298078  .00001997  00000+0  17415-3 0  9993
2 39446  97.8715 153.7003 0047556 220.3084 139.4608 14.97203974681956
UNISAT-6                
1 40012U 14033C   26197.37886950  .00001053  00000+0  11780-3 0  9997
2 40012  97.7910 349.5845 0044093 333.7883  26.1102 14.88368938650501
DUCHIFAT-1              
1 40021U 14033M   26197.12557747  .00087055  00000+0  68520-3 0  9999
2 40021  98.0416 260.5020 0002770 239.6355 120.4633 15.71200075660280
QB50P1                  
1 40025U 14033R   26197.47410784  .00003992  00000+0  19607-3 0  9990
2 40025  98.0963 210.6830 0010418 120.8917 239.3341 15.18676671657472
LILACSAT-2              
1 40908U 15049K   26197.60976079  .00011192  00000+0  18482-3 0  9998
2 40908  97.4621 235.5839 0008484 137.3533 222.8380 15.52392101600310
FOX-1A (AO-85)          
1 40967U 15058D   26197.32760415  .00001582  00000+0  15016-3 0  9999
2 40967  64.7725 188.4142 0132455  45.3781 315.8042 14.91092003117916
CAS-2T & KS-1Q          
1 41847U 16066G   26197.18998331  .00000484  00000+0  76375-4 0  9997
2 41847  98.3813 272.5943 0342196  41.7454 320.9311 14.44771379508986
RADFXSAT (FOX-1B)       
1 43017U 17073E   26197.57399529  .00004454  00000+0  19535-3 0  9999
2 43017  97.4661  64.1900 0148312 226.6684 132.2108 15.13073089469837
DIWATA-2B               
1 43678U 18084H   26197.57795584  .00001100  00000+0  92242-4 0  9998
2 43678  98.1210  35.0731 0012752  80.2675 279.9987 15.00566575420620
ES'HAIL 2               
1 43700U 18090A   26197.56017734  .00000133  00000+0  00000+0 0  9995
2 43700   0.0155  59.3194 0002257  99.5849   2.9240  1.00271679 27973
FOX-1CLIFF (AO-95)      
1 43770U 18099N   26197.43481706  .00005883  00000+0  22273-3 0  9998
2 43770  97.4366 257.5826 0007351 234.6280 125.4273 15.27288246417689
ITASAT                  
1 43786U 18099AE  26197.59490558  .00003153  00000+0  15200-3 0  9997
2 43786  97.4010 248.5237 0010937 244.9226 115.0874 15.19391697417370
JY1SAT (JO-97)          
1 43803U 18099AX  26197.44757069  .00009397  00000+0  28296-3 0  9999
2 43803  97.4111 260.3993 0006983 154.4800 205.6789 15.34543240418116
UWE-4                   
1 43880U 18111E   26196.35233479  .00020350  00000+0  39289-3 0  9998
2 43880  97.5850 126.0767 0006288 193.5981 166.5100 15.47824446415136
TIANYAN 01              
1 44881U 19093C   26197.59450785 -.00000129  00000+0 -85155-5 0  9997
2 44881  97.7525 269.1082 0013491 357.0322   3.0811 14.86560063355780
RS-44 & BREEZE-KM R/B   
1 44909U 19096E   26197.40108337  .00000014  00000+0  25258-5 0  9993
2 44909  82.5242 320.2932 0218525  76.1855 286.3458 12.79748917306085
SALSAT                  
1 46495U 20068K   26197.24901140  .00003822  00000+0  13369-3 0  9999
2 46495  97.8856 202.0925 0009321 188.9749 171.1325 15.30180346319806
XW-3 (CAS-9)            
1 50466U 21131B   26197.62690409  .00000410  00000+0  14022-3 0  9996
2 50466  98.4994 289.8579 0004511  27.1032 333.0392 14.41383076239352
GREENCUBE (IO-117)      
1 53109U 22080E   26197.28830747 -.00000003  00000+0  00000+0 0  9996
2 53109  70.1408 288.1261 0009079 283.0875  76.8771  6.42583343 93934
UMKA 1 (RS40S)          
1 57172U 23091G   26197.56732087  .00003044  00000+0  13969-3 0  9991
2 57172  97.5034 256.1549 0012912  24.9873 335.1985 15.21129782168470
CUBESX-HSE 3 (RS42S)    
1 57178U 23091N   26197.57416090  .00007156  00000+0  23459-3 0  9994
2 57178  97.5075 263.5449 0009514 356.9824   3.1359 15.31904666168920
MONITOR-3 (RS58S)       
1 57180U 23091Q   26197.59940538  .00005803  00000+0  21241-3 0  9992
2 57180  97.5066 261.2702 0010839   4.8327 355.3015 15.28388869168781
MONITOR-4 (RS57S)       
1 57182U 23091S   26197.57682247  .00005707  00000+0  20838-3 0  9996
2 57182  97.5060 261.2203 0010835   5.1212 355.0136 15.28475205168788
MONITOR-2 (RS39S)       
1 57184U 23091U   26197.62606073  .00002444  00000+0  11942-3 0  9998
2 57184  97.5054 255.7207 0011238  19.2596 340.9061 15.19161694168429
SVYATOBOR 1 (RS60S)     
1 57187U 23091X   26197.61602801  .00004650  00000+0  17779-3 0  9990
2 57187  97.5074 261.6029 0008607 359.5025   0.6203 15.27076885168801
VIZARD-METEO (RS38S)    
1 57189U 23091Z   26197.58437784  .00009366  00000+0  26178-3 0  9996
2 57189  97.5077 267.6755 0005536 333.6471  26.4490 15.36900981169206
POLYTECH-UNIVERSE 3 (R*)
1 57191U 23091AB  26197.58338479  .00002595  00000+0  12563-3 0  9990
2 57191  97.5031 255.1826 0015960  33.2341 326.9892 15.19374070168412
UTMN 2 (RS27S)          
1 57203U 23091AP  26197.51063715  .00007031  00000+0  22493-3 0  9998
2 57203  97.5071 265.1498 0006580 345.0643  15.0403 15.32720728169036
